[{"OBJECT_NAME":"ONEWEB-0033","OBJECT_ID":"2020-008M","EPOCH":"2026-05-03T05:32:38.892480","MEAN_MOTION":13.10374252,"ECCENTRICITY":0.0001714,"INCLINATION":87.8852,"RA_OF_ASC_NODE":45.2242,"ARG_OF_PERICENTER":62.6479,"MEAN_ANOMALY":297.4822,"EPHEMERIS_TYPE":0,"CLASSIFICATION_TYPE":"U","NORAD_CAT_ID":45142,"ELEMENT_SET_NO":999,"REV_AT_EPOCH":30232,"BSTAR":0.0019124,"MEAN_MOTION_DOT":6.8e-06,"MEAN_MOTION_DDOT":0.0},{"OBJECT_NAME":"ONEWEB-0035","OBJECT_ID":"2020-008N","EPOCH":"2026-05-03T04:22:57.544608","MEAN_MOTION":13.10882641,"ECCENTRICITY":0.0001824,"INCLINATION":87.885,"RA_OF_ASC_NODE":45.2305,"ARG_OF_PERICENTER":75.3701,"MEAN_ANOMALY":284.7629,"EPHEMERIS_TYPE":0,"CLASSIFICATION_TYPE":"U","NORAD_CAT_ID":45143,"ELEMENT_SET_NO":999,"REV_AT_EPOCH":30204,"BSTAR":-0.00087253,"MEAN_MOTION_DOT":-2.94e-06,"MEAN_MOTION_DDOT":0.0},{"OBJECT_NAME":"ONEWEB-0036","OBJECT_ID":"2020-008P","EPOCH":"2026-05-03T05:00:04.849344","MEAN_MOTION":13.09823273,"ECCENTRICITY":0.0001952,"INCLINATION":87.8875,"RA_OF_ASC_NODE":45.2177,"ARG_OF_PERICENTER":85.5082,"MEAN_ANOMALY":274.6268,"EPHEMERIS_TYPE":0,"CLASSIFICATION_TYPE":"U","NORAD_CAT_ID":45144,"ELEMENT_SET_NO":999,"REV_AT_EPOCH":30247,"BSTAR":-0.0006554299999999999,"MEAN_MOTION_DOT":-2.14e-06,"MEAN_MOTION_DDOT":0.0},{"OBJECT_NAME":"ONEWEB-0038","OBJECT_ID":"2020-008Q","EPOCH":"2026-05-03T05:31:18.161184","MEAN_MOTION":13.11418589,"ECCENTRICITY":0.000332,"INCLINATION":87.894,"RA_OF_ASC_NODE":30.0105,"ARG_OF_PERICENTER":59.8625,"MEAN_ANOMALY":300.2832,"EPHEMERIS_TYPE":0,"CLASSIFICATION_TYPE":"U","NORAD_CAT_ID":45145,"ELEMENT_SET_NO":999,"REV_AT_EPOCH":30443,"BSTAR":-0.0014495,"MEAN_MOTION_DOT":-5.01e-06,"MEAN_MOTION_DDOT":0.0},{"OBJECT_NAME":"ONEWEB-0039","OBJECT_ID":"2020-008R","EPOCH":"2026-05-03T05:37:25.151232","MEAN_MOTION":13.10372127,"ECCENTRICITY":0.000225,"INCLINATION":87.8857,"RA_OF_ASC_NODE":45.2122,"ARG_OF_PERICENTER":87.2097,"MEAN_ANOMALY":272.9288,"EPHEMERIS_TYPE":0,"CLASSIFICATION_TYPE":"U","NORAD_CAT_ID":45146,"ELEMENT_SET_NO":999,"REV_AT_EPOCH":30227,"BSTAR":0.001972,"MEAN_MOTION_DOT":7.01e-06,"MEAN_MOTION_DDOT":0.0},{"OBJECT_NAME":"ONEWEB-0040","OBJECT_ID":"2020-008S","EPOCH":"2026-05-03T05:27:51.466464","MEAN_MOTION":13.10374215,"ECCENTRICITY":0.0001938,"INCLINATION":87.8854,"RA_OF_ASC_NODE":45.2258,"ARG_OF_PERICENTER":76.6994,"MEAN_ANOMALY":283.435,"EPHEMERIS_TYPE":0,"CLASSIFICATION_TYPE":"U","NORAD_CAT_ID":45147,"ELEMENT_SET_NO":999,"REV_AT_EPOCH":30197,"BSTAR":0.0018761000000000001,"MEAN_MOTION_DOT":6.68e-06,"MEAN_MOTION_DDOT":0.0},{"OBJECT_NAME":"ONEWEB-0043","OBJECT_ID":"2020-008U","EPOCH":"2026-05-03T05:30:14.574240","MEAN_MOTION":13.10374043,"ECCENTRICITY":0.0002333,"INCLINATION":87.8857,"RA_OF_ASC_NODE":45.2115,"ARG_OF_PERICENTER":89.1584,"MEAN_ANOMALY":270.9811,"EPHEMERIS_TYPE":0,"CLASSIFICATION_TYPE":"U","NORAD_CAT_ID":45149,"ELEMENT_SET_NO":999,"REV_AT_EPOCH":30229,"BSTAR":0.0022276,"MEAN_MOTION_DOT":7.9e-06,"MEAN_MOTION_DDOT":0.0},{"OBJECT_NAME":"ONEWEB-0044","OBJECT_ID":"2020-008V","EPOCH":"2026-05-03T04:20:54.823776","MEAN_MOTION":13.10371207,"ECCENTRICITY":0.000206,"INCLINATION":87.8859,"RA_OF_ASC_NODE":45.2191,"ARG_OF_PERICENTER":81.075,"MEAN_ANOMALY":279.061,"EPHEMERIS_TYPE":0,"CLASSIFICATION_TYPE":"U","NORAD_CAT_ID":45150,"ELEMENT_SET_NO":999,"REV_AT_EPOCH":30258,"BSTAR":-0.00074339,"MEAN_MOTION_DOT":-2.47e-06,"MEAN_MOTION_DDOT":0.0},{"OBJECT_NAME":"ONEWEB-0045","OBJECT_ID":"2020-008W","EPOCH":"2026-05-03T05:23:46.624416","MEAN_MOTION":13.11417869,"ECCENTRICITY":0.0001912,"INCLINATION":87.8933,"RA_OF_ASC_NODE":29.9961,"ARG_OF_PERICENTER":79.5162,"MEAN_ANOMALY":280.6181,"EPHEMERIS_TYPE":0,"CLASSIFICATION_TYPE":"U","NORAD_CAT_ID":45151,"ELEMENT_SET_NO":999,"REV_AT_EPOCH":30451,"BSTAR":-0.001235,"MEAN_MOTION_DOT":-4.25e-06,"MEAN_MOTION_DDOT":0.0},{"OBJECT_NAME":"ONEWEB-0047","OBJECT_ID":"2020-008X","EPOCH":"2026-05-03T06:01:18.433056","MEAN_MOTION":13.10370527,"ECCENTRICITY":0.0001923,"INCLINATION":87.8857,"RA_OF_ASC_NODE":45.2054,"ARG_OF_PERICENTER":73.8558,"MEAN_ANOMALY":286.2781,"EPHEMERIS_TYPE":0,"CLASSIFICATION_TYPE":"U","NORAD_CAT_ID":45152,"ELEMENT_SET_NO":999,"REV_AT_EPOCH":30231,"BSTAR":-1.9205e-05,"MEAN_MOTION_DOT":6e-08,"MEAN_MOTION_DDOT":0.0},{"OBJECT_NAME":"ONEWEB-0048","OBJECT_ID":"2020-008Y","EPOCH":"2026-05-03T05:54:08.491104","MEAN_MOTION":13.10369872,"ECCENTRICITY":0.0001898,"INCLINATION":87.885,"RA_OF_ASC_NODE":45.2305,"ARG_OF_PERICENTER":76.5141,"MEAN_ANOMALY":283.6198,"EPHEMERIS_TYPE":0,"CLASSIFICATION_TYPE":"U","NORAD_CAT_ID":45153,"ELEMENT_SET_NO":999,"REV_AT_EPOCH":30192,"BSTAR":0.00096102,"MEAN_MOTION_DOT":3.48e-06,"MEAN_MOTION_DDOT":0.0},{"OBJECT_NAME":"ONEWEB-0049","OBJECT_ID":"2020-008Z","EPOCH":"2026-05-03T05:58:43.514400","MEAN_MOTION":13.10370219,"ECCENTRICITY":0.0001715,"INCLINATION":87.8853,"RA_OF_ASC_NODE":45.2184,"ARG_OF_PERICENTER":92.0735,"MEAN_ANOMALY":268.0589,"EPHEMERIS_TYPE":0,"CLASSIFICATION_TYPE":"U","NORAD_CAT_ID":45154,"ELEMENT_SET_NO":999,"REV_AT_EPOCH":30214,"BSTAR":0.00045672000000000003,"MEAN_MOTION_DOT":1.72e-06,"MEAN_MOTION_DDOT":0.0},{"OBJECT_NAME":"ONEWEB-0051","OBJECT_ID":"2020-008AA","EPOCH":"2026-05-03T05:21:20.151360","MEAN_MOTION":13.11414604,"ECCENTRICITY":0.0001852,"INCLINATION":87.8924,"RA_OF_ASC_NODE":30.0073,"ARG_OF_PERICENTER":79.9766,"MEAN_ANOMALY":280.1571,"EPHEMERIS_TYPE":0,"CLASSIFICATION_TYPE":"U","NORAD_CAT_ID":45155,"ELEMENT_SET_NO":999,"REV_AT_EPOCH":30519,"BSTAR":-0.0012950000000000001,"MEAN_MOTION_DOT":-4.46e-06,"MEAN_MOTION_DDOT":0.0},{"OBJECT_NAME":"ONEWEB-0052","OBJECT_ID":"2020-008AB","EPOCH":"2026-05-03T04:37:53.159232","MEAN_MOTION":13.10426886,"ECCENTRICITY":0.0001614,"INCLINATION":87.8858,"RA_OF_ASC_NODE":45.2143,"ARG_OF_PERICENTER":92.0763,"MEAN_ANOMALY":268.0549,"EPHEMERIS_TYPE":0,"CLASSIFICATION_TYPE":"U","NORAD_CAT_ID":45156,"ELEMENT_SET_NO":999,"REV_AT_EPOCH":30204,"BSTAR":-0.02453,"MEAN_MOTION_DOT":-8.549e-05,"MEAN_MOTION_DDOT":0.0},{"OBJECT_NAME":"ONEWEB-0053","OBJECT_ID":"2020-008AC","EPOCH":"2026-05-03T05:25:28.162560","MEAN_MOTION":13.10375249,"ECCENTRICITY":0.0002152,"INCLINATION":87.8856,"RA_OF_ASC_NODE":45.2314,"ARG_OF_PERICENTER":91.3349,"MEAN_ANOMALY":268.8025,"EPHEMERIS_TYPE":0,"CLASSIFICATION_TYPE":"U","NORAD_CAT_ID":45157,"ELEMENT_SET_NO":999,"REV_AT_EPOCH":30202,"BSTAR":0.0019355,"MEAN_MOTION_DOT":6.88e-06,"MEAN_MOTION_DDOT":0.0},{"OBJECT_NAME":"ONEWEB-0054","OBJECT_ID":"2020-008AD","EPOCH":"2026-05-03T04:25:40.824192","MEAN_MOTION":13.10370744,"ECCENTRICITY":0.0001818,"INCLINATION":87.8861,"RA_OF_ASC_NODE":45.2187,"ARG_OF_PERICENTER":80.0057,"MEAN_ANOMALY":280.1276,"EPHEMERIS_TYPE":0,"CLASSIFICATION_TYPE":"U","NORAD_CAT_ID":45158,"ELEMENT_SET_NO":999,"REV_AT_EPOCH":30213,"BSTAR":-0.0011367,"MEAN_MOTION_DOT":-3.84e-06,"MEAN_MOTION_DDOT":0.0}]